ONEWEB-0094             
1 45450U 20020AC  25132.11047195  .00000023  00000+0  26441-4 0  9998
2 45450  87.9050  85.6979 0002071  79.5141 280.6223 13.17652101253493
ONEWEB-0087             
1 45451U 20020AD  25132.16803326 -.00000498  00000+0 -14398-2 0  9994
2 45451  87.8810 100.9434 0001960  77.1052 283.0295 13.11416117250037
ONEWEB-0082             
1 45452U 20020AE  25132.16477604 -.00000493  00000+0 -14277-2 0  9992
2 45452  87.8814 100.9642 0001848  82.6590 277.4748 13.11415482250120
ONEWEB-0050             
1 45453U 20020AF  25131.92847380  .00001914  00000+0  19380-3 0  9996
2 45453  87.9951 304.5976 0002695  36.8454 323.2960 14.90462813280630
ONEWEB-0034             
1 45454U 20020AG  25132.49125848 -.00014425  00000+0 -40705-1 0  9994
2 45454  87.8817 100.9180 0001823  83.0025 277.1311 13.11577610250083
ONEWEB-0060             
1 45455U 20020AH  25131.84786539 -.00000132  00000+0 -40960-3 0  9998
2 45455  87.8816 101.0733 0002198  85.1982 274.9397 13.11414924249940
ONEWEB-0086             
1 45456U 20020AJ  25131.83077939  .00000435  00000+0  11929-2 0  9991
2 45456  87.8811 101.0491 0001915  73.6801 286.4538 13.11414295250000
ONEWEB-0088             
1 45457U 20020AK  25131.88503366  .00000106  00000+0  26437-3 0  9991
2 45457  87.8809 100.9892 0002086  80.5267 279.6096 13.11417804249947
